QZS-1R                  
1 49336U 21096A   24114.35352144 -.00000196  00000+0  00000+0 0  9997
2 49336  35.8332  91.3562 0752756 270.4497 112.4560  1.00278609  9137
